CCSDS_OMM_VERS = 2.0
CREATION_DATE  = 
ORIGINATOR     = 

OBJECT_NAME    = INTERCOSMOS 25
OBJECT_ID      = 1991-086A
CENTER_NAME    = EARTH
REF_FRAME      = TEME
TIME_SYSTEM    = UTC
MEAN_ELEMENT_THEORY = SGP/SGP4

EPOCH          = 2025-12-03T19:13:59.111040
MEAN_MOTION    = 12.11678463
ECCENTRICITY   = .148703
INCLINATION    = 82.6069
RA_OF_ASC_NODE = 7.9812
ARG_OF_PERICENTER = 323.6815
MEAN_ANOMALY   = 27.1677

EPHEMERIS_TYPE = 0
CLASSIFICATION_TYPE = U
NORAD_CAT_ID   = 21819
ELEMENT_SET_NO = 999
REV_AT_EPOCH   = 48507
BSTAR          = .6807E-3
MEAN_MOTION_DOT = .3431E-4
MEAN_MOTION_DDOT = 0

CCSDS_OMM_VERS = 2.0
CREATION_DATE  = 
ORIGINATOR     = 

OBJECT_NAME    = SL-8 R/B
OBJECT_ID      = 1992-008B
CENTER_NAME    = EARTH
REF_FRAME      = TEME
TIME_SYSTEM    = UTC
MEAN_ELEMENT_THEORY = SGP/SGP4

EPOCH          = 2025-12-03T18:10:59.104128
MEAN_MOTION    = 13.75956089
ECCENTRICITY   = .0035677
INCLINATION    = 82.9263
RA_OF_ASC_NODE = 339.1282
ARG_OF_PERICENTER = 44.3625
MEAN_ANOMALY   = 128.4759

EPHEMERIS_TYPE = 0
CLASSIFICATION_TYPE = U
NORAD_CAT_ID   = 21876
ELEMENT_SET_NO = 999
REV_AT_EPOCH   = 69622
BSTAR          = .18164E-3
MEAN_MOTION_DOT = .192E-5
MEAN_MOTION_DDOT = 0

CCSDS_OMM_VERS = 2.0
CREATION_DATE  = 
ORIGINATOR     = 

OBJECT_NAME    = SL-8 R/B
OBJECT_ID      = 1992-020B
CENTER_NAME    = EARTH
REF_FRAME      = TEME
TIME_SYSTEM    = UTC
MEAN_ELEMENT_THEORY = SGP/SGP4

EPOCH          = 2025-12-03T17:58:33.004704
MEAN_MOTION    = 13.75524789
ECCENTRICITY   = .0028338
INCLINATION    = 82.9312
RA_OF_ASC_NODE = 224.9931
ARG_OF_PERICENTER = 203.5788
MEAN_ANOMALY   = 220.3276

EPHEMERIS_TYPE = 0
CLASSIFICATION_TYPE = U
NORAD_CAT_ID   = 21938
ELEMENT_SET_NO = 999
REV_AT_EPOCH   = 68794
BSTAR          = .66291E-4
MEAN_MOTION_DOT = .79E-6
MEAN_MOTION_DDOT = 0

CCSDS_OMM_VERS = 2.0
CREATION_DATE  = 
ORIGINATOR     = 

OBJECT_NAME    = USA 81
OBJECT_ID      = 1992-023A
CENTER_NAME    = EARTH
REF_FRAME      = TEME
TIME_SYSTEM    = UTC
MEAN_ELEMENT_THEORY = SGP/SGP4

EPOCH          = 2025-12-03T16:08:51.203040
MEAN_MOTION    = 14.32321649
ECCENTRICITY   = .0001817
INCLINATION    = 85.0088
RA_OF_ASC_NODE = 186.8051
ARG_OF_PERICENTER = 62.6711
MEAN_ANOMALY   = 297.4666

EPHEMERIS_TYPE = 0
CLASSIFICATION_TYPE = U
NORAD_CAT_ID   = 21949
ELEMENT_SET_NO = 999
REV_AT_EPOCH   = 8104
BSTAR          = .97373E-4
MEAN_MOTION_DOT = .283E-5
MEAN_MOTION_DDOT = 0

CCSDS_OMM_VERS = 2.0
CREATION_DATE  = 
ORIGINATOR     = 

OBJECT_NAME    = COSMOS 2219
OBJECT_ID      = 1992-076A
CENTER_NAME    = EARTH
REF_FRAME      = TEME
TIME_SYSTEM    = UTC
MEAN_ELEMENT_THEORY = SGP/SGP4

EPOCH          = 2025-12-03T19:28:29.985024
MEAN_MOTION    = 14.14063754
ECCENTRICITY   = .0018872
INCLINATION    = 71.0593
RA_OF_ASC_NODE = 218.4961
ARG_OF_PERICENTER = 339.0710
MEAN_ANOMALY   = 20.9638

EPHEMERIS_TYPE = 0
CLASSIFICATION_TYPE = U
NORAD_CAT_ID   = 22219
ELEMENT_SET_NO = 999
REV_AT_EPOCH   = 70482
BSTAR          = -.8334E-4
MEAN_MOTION_DOT = -.206E-5
MEAN_MOTION_DDOT = 0

CCSDS_OMM_VERS = 2.0
CREATION_DATE  = 
ORIGINATOR     = 

OBJECT_NAME    = SL-16 R/B
OBJECT_ID      = 1992-076B
CENTER_NAME    = EARTH
REF_FRAME      = TEME
TIME_SYSTEM    = UTC
MEAN_ELEMENT_THEORY = SGP/SGP4

EPOCH          = 2025-12-03T14:52:50.369088
MEAN_MOTION    = 14.16841348
ECCENTRICITY   = .0015067
INCLINATION    = 71.0016
RA_OF_ASC_NODE = 30.7425
ARG_OF_PERICENTER = 246.3412
MEAN_ANOMALY   = 227.4460

EPHEMERIS_TYPE = 0
CLASSIFICATION_TYPE = U
NORAD_CAT_ID   = 22220
ELEMENT_SET_NO = 999
REV_AT_EPOCH   = 70822
BSTAR          = .46524E-4
MEAN_MOTION_DOT = .45E-6
MEAN_MOTION_DDOT = 0

CCSDS_OMM_VERS = 2.0
CREATION_DATE  = 
ORIGINATOR     = 

OBJECT_NAME    = COSMOS 2221
OBJECT_ID      = 1992-080A
CENTER_NAME    = EARTH
REF_FRAME      = TEME
TIME_SYSTEM    = UTC
MEAN_ELEMENT_THEORY = SGP/SGP4

EPOCH          = 2025-12-03T14:03:36.904320
MEAN_MOTION    = 14.95704448
ECCENTRICITY   = .0015396
INCLINATION    = 82.5050
RA_OF_ASC_NODE = 11.0874
ARG_OF_PERICENTER = 150.2856
MEAN_ANOMALY   = 209.9243

EPHEMERIS_TYPE = 0
CLASSIFICATION_TYPE = U
NORAD_CAT_ID   = 22236
ELEMENT_SET_NO = 999
REV_AT_EPOCH   = 76642
BSTAR          = .27509E-3
MEAN_MOTION_DOT = .3093E-4
MEAN_MOTION_DDOT = 0

CCSDS_OMM_VERS = 2.0
CREATION_DATE  = 
ORIGINATOR     = 

OBJECT_NAME    = SL-16 R/B
OBJECT_ID      = 1992-093B
CENTER_NAME    = EARTH
REF_FRAME      = TEME
TIME_SYSTEM    = UTC
MEAN_ELEMENT_THEORY = SGP/SGP4

EPOCH          = 2025-12-03T18:27:08.565696
MEAN_MOTION    = 14.15425556
ECCENTRICITY   = .0001949
INCLINATION    = 71.0202
RA_OF_ASC_NODE = 205.6270
ARG_OF_PERICENTER = 99.3882
MEAN_ANOMALY   = 260.7461

EPHEMERIS_TYPE = 0
CLASSIFICATION_TYPE = U
NORAD_CAT_ID   = 22285
ELEMENT_SET_NO = 999
REV_AT_EPOCH   = 69958
BSTAR          = -.17079E-4
MEAN_MOTION_DOT = -.81E-6
MEAN_MOTION_DDOT = 0

CCSDS_OMM_VERS = 2.0
CREATION_DATE  = 
ORIGINATOR     = 

OBJECT_NAME    = COSMOS 2228
OBJECT_ID      = 1992-094A
CENTER_NAME    = EARTH
REF_FRAME      = TEME
TIME_SYSTEM    = UTC
MEAN_ELEMENT_THEORY = SGP/SGP4

EPOCH          = 2025-12-03T17:33:34.555680
MEAN_MOTION    = 14.96659776
ECCENTRICITY   = .0016286
INCLINATION    = 82.5169
RA_OF_ASC_NODE = 329.1542
ARG_OF_PERICENTER = 264.6932
MEAN_ANOMALY   = 95.2432

EPHEMERIS_TYPE = 0
CLASSIFICATION_TYPE = U
NORAD_CAT_ID   = 22286
ELEMENT_SET_NO = 999
REV_AT_EPOCH   = 76170
BSTAR          = .34662E-3
MEAN_MOTION_DOT = .3988E-4
MEAN_MOTION_DDOT = 0

CCSDS_OMM_VERS = 2.0
CREATION_DATE  = 
ORIGINATOR     = 

OBJECT_NAME    = SL-16 R/B
OBJECT_ID      = 1993-016B
CENTER_NAME    = EARTH
REF_FRAME      = TEME
TIME_SYSTEM    = UTC
MEAN_ELEMENT_THEORY = SGP/SGP4

EPOCH          = 2025-12-03T15:48:01.461600
MEAN_MOTION    = 14.15288617
ECCENTRICITY   = .0007827
INCLINATION    = 71.0091
RA_OF_ASC_NODE = 56.8765
ARG_OF_PERICENTER = 114.9267
MEAN_ANOMALY   = 245.2670

EPHEMERIS_TYPE = 0
CLASSIFICATION_TYPE = U
NORAD_CAT_ID   = 22566
ELEMENT_SET_NO = 999
REV_AT_EPOCH   = 68858
BSTAR          = -.65581E-4
MEAN_MOTION_DOT = -.175E-5
MEAN_MOTION_DDOT = 0

CCSDS_OMM_VERS = 2.0
CREATION_DATE  = 
ORIGINATOR     = 

OBJECT_NAME    = COSMOS 2242
OBJECT_ID      = 1993-024A
CENTER_NAME    = EARTH
REF_FRAME      = TEME
TIME_SYSTEM    = UTC
MEAN_ELEMENT_THEORY = SGP/SGP4

EPOCH          = 2025-12-03T12:57:03.828096
MEAN_MOTION    = 14.96043926
ECCENTRICITY   = .0014742
INCLINATION    = 82.5193
RA_OF_ASC_NODE = 358.6389
ARG_OF_PERICENTER = 268.4084
MEAN_ANOMALY   = 91.5449

EPHEMERIS_TYPE = 0
CLASSIFICATION_TYPE = U
NORAD_CAT_ID   = 22626
ELEMENT_SET_NO = 999
REV_AT_EPOCH   = 76601
BSTAR          = .30235E-3
MEAN_MOTION_DOT = .3426E-4
MEAN_MOTION_DDOT = 0

CCSDS_OMM_VERS = 2.0
CREATION_DATE  = 
ORIGINATOR     = 

OBJECT_NAME    = SL-16 R/B
OBJECT_ID      = 1993-059B
CENTER_NAME    = EARTH
REF_FRAME      = TEME
TIME_SYSTEM    = UTC
MEAN_ELEMENT_THEORY = SGP/SGP4

EPOCH          = 2025-12-03T18:26:13.153920
MEAN_MOTION    = 14.17210228
ECCENTRICITY   = .0017425
INCLINATION    = 70.9895
RA_OF_ASC_NODE = 213.4043
ARG_OF_PERICENTER = 348.8337
MEAN_ANOMALY   = 11.2397

EPHEMERIS_TYPE = 0
CLASSIFICATION_TYPE = U
NORAD_CAT_ID   = 22803
ELEMENT_SET_NO = 999
REV_AT_EPOCH   = 66594
BSTAR          = .177E-3
MEAN_MOTION_DOT = .31E-5
MEAN_MOTION_DDOT = 0

CCSDS_OMM_VERS = 2.0
CREATION_DATE  = 
ORIGINATOR     = 

OBJECT_NAME    = ARIANE 40 R/B
OBJECT_ID      = 1993-061H
CENTER_NAME    = EARTH
REF_FRAME      = TEME
TIME_SYSTEM    = UTC
MEAN_ELEMENT_THEORY = SGP/SGP4

EPOCH          = 2025-12-03T19:39:40.595904
MEAN_MOTION    = 14.32791696
ECCENTRICITY   = .0010371
INCLINATION    = 98.5089
RA_OF_ASC_NODE = 43.5111
ARG_OF_PERICENTER = 202.8780
MEAN_ANOMALY   = 157.1944

EPHEMERIS_TYPE = 0
CLASSIFICATION_TYPE = U
NORAD_CAT_ID   = 22830
ELEMENT_SET_NO = 999
REV_AT_EPOCH   = 68037
BSTAR          = .1717E-3
MEAN_MOTION_DOT = .425E-5
MEAN_MOTION_DDOT = 0

CCSDS_OMM_VERS = 2.0
CREATION_DATE  = 
ORIGINATOR     = 

OBJECT_NAME    = COSMOS 2278
OBJECT_ID      = 1994-023A
CENTER_NAME    = EARTH
REF_FRAME      = TEME
TIME_SYSTEM    = UTC
MEAN_ELEMENT_THEORY = SGP/SGP4

EPOCH          = 2025-12-03T13:17:29.869152
MEAN_MOTION    = 14.14351002
ECCENTRICITY   = .0008837
INCLINATION    = 71.0552
RA_OF_ASC_NODE = 16.2293
ARG_OF_PERICENTER = 193.5191
MEAN_ANOMALY   = 166.5697

EPHEMERIS_TYPE = 0
CLASSIFICATION_TYPE = U
NORAD_CAT_ID   = 23087
ELEMENT_SET_NO = 999
REV_AT_EPOCH   = 63121
BSTAR          = .24054E-4
MEAN_MOTION_DOT = -.1E-7
MEAN_MOTION_DDOT = 0

CCSDS_OMM_VERS = 2.0
CREATION_DATE  = 
ORIGINATOR     = 

OBJECT_NAME    = SL-16 R/B
OBJECT_ID      = 1994-023B
CENTER_NAME    = EARTH
REF_FRAME      = TEME
TIME_SYSTEM    = UTC
MEAN_ELEMENT_THEORY = SGP/SGP4

EPOCH          = 2025-12-03T06:58:38.895744
MEAN_MOTION    = 14.14997759
ECCENTRICITY   = .0001061
INCLINATION    = 71.0001
RA_OF_ASC_NODE = 273.3283
ARG_OF_PERICENTER = 73.5393
MEAN_ANOMALY   = 286.5847

EPHEMERIS_TYPE = 0
CLASSIFICATION_TYPE = U
NORAD_CAT_ID   = 23088
ELEMENT_SET_NO = 999
REV_AT_EPOCH   = 63245
BSTAR          = .22173E-3
MEAN_MOTION_DOT = .382E-5
MEAN_MOTION_DDOT = 0

